STARLINK-36432          
1 67342U 26003J   26022.25003472 -.01590077  00000+0 -10184-1 0  9993
2 67342  42.9986 134.7303 0001267 265.8494 316.6273 15.78456369  3192
STARLINK-36458          
1 67343U 26003K   26022.25003472 -.01598949  00000+0 -10260-1 0  9995
2 67343  42.9985 134.7256 0001217 269.9191 314.5781 15.78433911  3204
STARLINK-36422          
1 67344U 26003L   26022.25003472 -.01608516  00000+0 -10372-1 0  9992
2 67344  42.9982 134.7191 0001268 268.1118 318.6473 15.78345774  3196
STARLINK-35676          
1 67345U 26003M   26022.25003472 -.01655333  00000+0 -10514-1 0  9990
2 67345  42.9984 134.7139 0001359 268.1993 320.7739 15.78267699  3191
STARLINK-36472          
1 67346U 26003N   26022.25003472 -.01658431  00000+0 -10553-1 0  9996
2 67346  42.9986 134.7084 0001340 267.6122 323.4088 15.78233486  3195
STARLINK-36420          
1 67347U 26003P   26022.25003472 -.01682858  00000+0 -10788-1 0  9997
2 67347  42.9988 134.6978 0001449 273.9225 321.3777 15.78111914  3208
STARLINK-36467          
1 67348U 26003Q   26022.25003472 -.01674990  00000+0 -10712-1 0  9993
2 67348  42.9987 134.7033 0001433 274.1454 319.1006 15.78150182  3201
STARLINK-36457          
1 67349U 26003R   26022.25003472 -.01694469  00000+0 -10921-1 0  9999
2 67349  42.9987 134.6923 0001417 273.8034 323.7402 15.78013533  3200
STARLINK-36475          
1 67350U 26003S   26022.25003472 -.01700824  00000+0 -11014-1 0  9998
2 67350  42.9986 134.6866 0001178 272.2695 327.4721 15.77922140  3192
STARLINK-36478          
1 67351U 26003T   26022.25003472 -.01705733  00000+0 -11059-1 0  9992
2 67351  42.9987 134.6816 0001243 266.8221 334.9106 15.77902995  3192
STARLINK-36479          
1 67352U 26003U   26022.25003472 -.01712317  00000+0 -11123-1 0  9991
2 67352  42.9987 134.6765 0001294 263.5325 340.2197 15.77872066  3208
STARLINK-36474          
1 67353U 26003V   26022.25003472 -.01726513  00000+0 -11264-1 0  9991
2 67353  42.9987 134.6715 0001205 263.2352 342.6496 15.77801957  3202
